NORAD_CAT_ID,OBJECT_NAME,OBJECT_TYPE,EPOCH,MEAN_MOTION,ECCENTRICITY,INCLINATION,RA_OF_ASC_NODE,ARG_OF_PERICENTER,MEAN_ANOMALY,BSTAR,MEAN_MOTION_DOT,MEAN_MOTION_DDOT,TLE_LINE0,TLE_LINE1,TLE_LINE2,SEMIMAJOR_AXIS,PERIOD,APOGEE,PERIGEE,DECAYED
56779.0,STARLINK-6231,PAYLOAD,2024-07-28 20:50:31,14.98334362,0.0002959,70.0015,9.0873,271.6673,88.4147,4.873e-05,4.89e-06,0.0,0 STARLINK-6231,1 56779U 23078N   24210.86841864  .00000489  00000-0  48730-4 0  9995,2 56779  70.0015   9.0873 0002959 271.6673  88.4147 14.98334362 64963,6950.179,96.107,574.101,569.988,0.0
56779.0,STARLINK-6231,PAYLOAD,2024-07-29 20:52:32,14.98330207,0.0003003,70.0017,6.5632,276.2963,83.7854,5.68e-05,5.85e-06,0.0,0 STARLINK-6231,1 56779U 23078N   24211.86982077  .00000585  00000-0  56800-4 0  9992,2 56779  70.0017   6.5632 0003003 276.2963  83.7854 14.98330207 65388,6950.192,96.107,574.144,569.97,0.0
56779.0,STARLINK-6231,PAYLOAD,2024-07-30 03:17:04,14.9833099,0.0002855,70.0021,5.8893,277.3515,82.7319,-1.2792e-05,-2.46e-06,0.0,0 STARLINK-6231,1 56779U 23078N   24212.13686250 -.00000246  00000-0 -12792-4 0  9995,2 56779  70.0021   5.8893 0002855 277.3515  82.7319 14.98330990 65152,6950.19,96.107,574.039,570.071,0.0
56779.0,STARLINK-6231,PAYLOAD,2024-07-30 20:54:33,14.98334299,0.0002988,70.0017,4.0384,272.823,87.2587,-4.9805e-06,-1.52e-06,0.0,0 STARLINK-6231,1 56779U 23078N   24212.87121796 -.00000152  00000-0 -49805-5 0  9997,2 56779  70.0017   4.0384 0002988 272.8230  87.2587 14.98334299 65539,6950.18,96.107,574.121,569.968,0.0
56779.0,STARLINK-6231,PAYLOAD,2024-07-31 12:55:54,14.98313099,0.0002918,70.001,2.3549,268.4685,91.614,0.00010742,1.188e-05,0.0,0 STARLINK-6231,1 56779U 23078N   24213.53882499  .00001188  00000-0  10742-3 0  9999,2 56779  70.0010   2.3549 0002918 268.4685  91.6140 14.98313099 65634,6950.245,96.108,574.138,570.082,0.0
56779.0,STARLINK-6231,PAYLOAD,2024-07-31 14:32:02,14.98325417,0.0002903,70.0016,2.1864,269.177,90.9057,-0.00011772,-1.497e-05,0.0,0 STARLINK-6231,1 56779U 23078N   24213.60558746 -.00001497  00000-0 -11772-3 0  9991,2 56779  70.0016   2.1864 0002903 269.1770  90.9057 14.98325417 65372,6950.207,96.107,574.09,570.054,0.0
56779.0,STARLINK-6231,PAYLOAD,2024-07-31 19:20:26,14.98330668,0.0003026,70.0021,1.6818,265.792,94.2893,-0.00015787,-1.976e-05,0.0,0 STARLINK-6231,1 56779U 23078N   24213.80586559 -.00001976  00000-0 -15787-3 0  9998,2 56779  70.0021   1.6818 0003026 265.7920  94.2893 14.98330668 65400,6950.191,96.107,574.159,569.953,0.0
56779.0,STARLINK-6231,PAYLOAD,2024-08-01 11:21:46,14.98336976,0.0002947,70.0019,359.9986,268.0694,92.0127,8.3521e-05,9.04e-06,0.0,0 STARLINK-6231,1 56779U 23078N   24214.47345409  .00000904  00000-0  83521-4 0  9999,2 56779  70.0019 359.9986 0002947 268.0694  92.0127 14.98336976 65771,6950.171,96.107,574.085,569.988,0.0
56779.0,STARLINK-6231,PAYLOAD,2024-08-01 19:22:26,14.983431,0.0002943,70.002,359.157,267.8627,92.2195,0.00010345,1.142e-05,0.0,0 STARLINK-6231,1 56779U 23078N   24214.80724791  .00001142  00000-0  10345-3 0  9999,2 56779  70.0020 359.1570 0002943 267.8627  92.2195 14.98343100 65553,6950.152,96.106,574.063,569.972,0.0
56779.0,STARLINK-6231,PAYLOAD,2024-08-02 03:23:07,14.98329376,0.0002551,70.0017,358.3161,274.7667,85.3201,3.4735e-05,3.22e-06,0.0,0 STARLINK-6231,1 56779U 23078N   24215.14105877  .00000322  00000-0  34735-4 0  9994,2 56779  70.0017 358.3161 0002551 274.7667  85.3201 14.98329376 65877,6950.195,96.107,573.833,570.287,0.0
56779.0,STARLINK-6231,PAYLOAD,2024-08-02 12:59:56,14.98319301,0.0003043,70.0016,357.3057,268.3473,91.7338,-1.1395e-05,-2.29e-06,0.0,0 STARLINK-6231,1 56779U 23078N   24215.54162553 -.00000229  00000-0 -11395-4 0  9997,2 56779  70.0016 357.3057 0003043 268.3473  91.7338 14.98319301 65936,6950.226,96.108,574.206,569.976,0.0
56779.0,STARLINK-6231,PAYLOAD,2024-08-02 14:36:04,14.98318785,0.0002955,70.0018,357.1373,269.8468,90.2353,-2.614e-06,-1.24e-06,0.0,0 STARLINK-6231,1 56779U 23078N   24215.60838601 -.00000124  00000-0 -26140-5 0  9997,2 56779  70.0018 357.1373 0002955 269.8468  90.2353 14.98318785 65675,6950.228,96.108,574.146,570.039,0.0
56779.0,STARLINK-6231,PAYLOAD,2024-08-02 19:24:28,14.98321751,0.0003075,70.0019,356.6334,270.8744,89.2063,-2.4274e-05,-3.83e-06,0.0,0 STARLINK-6231,1 56779U 23078N   24215.80866591 -.00000383  00000-0 -24274-4 0  9990,2 56779  70.0019 356.6334 0003075 270.8744  89.2063 14.98321751 65707,6950.218,96.108,574.221,569.946,0.0
56779.0,STARLINK-6231,PAYLOAD,2024-08-03 11:25:48,14.98332988,0.0003205,70.0017,354.9507,271.0422,89.0369,-3.5908e-05,-5.21e-06,0.0,0 STARLINK-6231,1 56779U 23078N   24216.47625937 -.00000521  00000-0 -35908-4 0  9991,2 56779  70.0017 354.9507 0003205 271.0422  89.0369 14.98332988 66071,6950.184,96.107,574.276,569.821,0.0
56779.0,STARLINK-6231,PAYLOAD,2024-08-03 14:38:04,14.98333843,0.0003205,70.002,354.614,271.0969,88.9823,-1.6197e-05,-2.86e-06,0.0,0 STARLINK-6231,1 56779U 23078N   24216.60977805 -.00000286  00000-0 -16197-4 0  9997,2 56779  70.0020 354.6140 0003205 271.0969  88.9823 14.98333843 65827,6950.181,96.107,574.274,569.818,0.0
56779.0,STARLINK-6231,PAYLOAD,2024-08-03 19:26:28,14.9834362,0.0003045,70.0019,354.1087,269.2794,90.8016,2.2432e-05,1.75e-06,0.0,0 STARLINK-6231,1 56779U 23078N   24216.81004961  .00000175  00000-0  22432-4 0  9998,2 56779  70.0019 354.1087 0003045 269.2794  90.8016 14.98343620 66121,6950.151,96.106,574.132,569.899,0.0
56779.0,STARLINK-6231,PAYLOAD,2024-08-04 09:51:42,14.98319253,0.0002845,70.003,352.5949,273.887,86.1963,5.9139e-05,6.13e-06,0.0,0 STARLINK-6231,1 56779U 23078N   24217.41090369  .00000613  00000-0  59139-4 0  9993,2 56779  70.0030 352.5949 0002845 273.8870  86.1963 14.98319253 66210,6950.226,96.108,574.068,570.114,0.0
56779.0,STARLINK-6231,PAYLOAD,2024-08-04 19:28:30,14.9832526,0.0002556,70.0034,351.5839,269.6944,90.3922,0.00013134,1.474e-05,0.0,0 STARLINK-6231,1 56779U 23078N   24217.81145991  .00001474  00000-0  13134-3 0  9999,2 56779  70.0034 351.5839 0002556 269.6944  90.3922 14.98325260 66278,6950.208,96.107,573.849,570.296,0.0
56779.0,STARLINK-6231,PAYLOAD,2024-08-05 17:54:22,14.98338661,0.0002834,70.0024,349.2281,268.4585,91.6249,3.1463e-05,2.83e-06,0.0,0 STARLINK-6231,1 56779U 23078N   24218.74609110  .00000283  00000-0  31463-4 0  9993,2 56779  70.0024 349.2281 0002834 268.4585  91.6249 14.98338661 66410,6950.166,96.106,574.001,570.061,0.0
56779.0,STARLINK-6231,PAYLOAD,2024-08-06 01:55:02,14.9833499,0.000284,70.0025,348.3864,268.2384,91.845,-9.0545e-05,-1.173e-05,0.0,0 STARLINK-6231,1 56779U 23078N   24219.07989519 -.00001173  00000-0 -90545-4 0  9991,2 56779  70.0025 348.3864 0002840 268.2384  91.8450 14.98334990 66462,6950.177,96.107,574.016,570.069,0.0
56779.0,STARLINK-6231,PAYLOAD,2024-08-06 11:31:52,14.98322878,0.000266,70.0029,347.3794,259.8488,100.2371,-0.00010227,-1.313e-05,0.0,0 STARLINK-6231,1 56779U 23078N   24219.48046502 -.00001313  00000-0 -10227-3 0  9996,2 56779  70.0029 347.3794 0002660 259.8488 100.2371 14.98322878 66524,6950.215,96.107,573.929,570.231,0.0
56779.0,STARLINK-6231,PAYLOAD,2024-08-06 14:44:08,14.98322269,0.0002627,70.0031,347.0417,261.8461,98.24,-8.307e-05,-1.084e-05,0.0,0 STARLINK-6231,1 56779U 23078N   24219.61398502 -.00001084  00000-0 -83070-4 0  9993,2 56779  70.0031 347.0417 0002627 261.8461  98.2400 14.98322269 66278,6950.217,96.107,573.908,570.256,0.0
56779.0,STARLINK-6231,PAYLOAD,2024-08-06 19:32:32,14.98326646,0.0002902,70.0022,346.5352,263.326,96.7569,-5.4865e-05,-7.47e-06,0.0,0 STARLINK-6231,1 56779U 23078N   24219.81426167 -.00000747  00000-0 -54865-4 0  9999,2 56779  70.0022 346.5352 0002902 263.3260  96.7569 14.98326646 66306,6950.203,96.107,574.085,570.051,0.0
56779.0,STARLINK-6231,PAYLOAD,2024-08-07 11:33:52,14.98330334,0.0002913,70.0022,344.8518,263.248,96.8348,-2.0237e-05,-3.34e-06,0.0,0 STARLINK-6231,1 56779U 23078N   24220.48185866 -.00000334  00000-0 -20237-4 0  9990,2 56779  70.0022 344.8518 0002913 263.2480  96.8348 14.98330334 66671,6950.192,96.107,574.081,570.032,0.0
56779.0,STARLINK-6231,PAYLOAD,2024-08-07 17:58:24,14.98339754,0.0002977,70.002,344.1783,264.3855,95.6965,2.1479e-05,1.63e-06,0.0,0 STARLINK-6231,1 56779U 23078N   24220.74889094  .00000163  00000-0  21479-4 0  9990,2 56779  70.0020 344.1783 0002977 264.3855  95.6965 14.98339754 66716,6950.163,96.106,574.097,569.959,0.0
56779.0,STARLINK-6231,PAYLOAD,2024-08-08 13:12:01,14.9832338,0.0003031,70.0022,342.1582,259.697,100.3847,0.00015785,1.791e-05,0.0,0 STARLINK-6231,1 56779U 23078N   24221.55001632  .00001791  00000-0  15785-3 0  9994,2 56779  70.0022 342.1582 0003031 259.6970 100.3847 14.98323380 66564,6950.213,96.107,574.185,569.972,0.0
56779.0,STARLINK-6231,PAYLOAD,2024-08-08 18:00:25,14.98331855,0.0002921,70.0026,341.6552,258.2784,101.8047,0.00016738,1.905e-05,0.0,0 STARLINK-6231,1 56779U 23078N   24221.75029074  .00001905  00000-0  16738-3 0  9992,2 56779  70.0026 341.6552 0002921 258.2784 101.8047 14.98331855 66861,6950.187,96.107,574.082,570.022,0.0
56779.0,STARLINK-6231,PAYLOAD,2024-08-09 14:50:10,14.98332888,0.0002736,70.004,339.4715,240.2924,119.7963,-1.8507e-05,-3.14e-06,0.0,0 STARLINK-6231,1 56779U 23078N   24222.61817498 -.00000314  00000-0 -18507-4 0  9995,2 56779  70.0040 339.4715 0002736 240.2924 119.7963 14.98332888 66721,6950.184,96.107,573.951,570.147,0.0
56779.0,STARLINK-6231,PAYLOAD,2024-08-09 18:02:26,14.98338285,0.000285,70.0027,339.1316,253.4284,106.6562,-5.802e-06,-1.62e-06,0.0,0 STARLINK-6231,1 56779U 23078N   24222.75169035 -.00000162  00000-0 -58020-5 0  9993,2 56779  70.0027 339.1316 0002850 253.4284 106.6562 14.98338285 67012,6950.167,96.106,574.013,570.051,0.0
56779.0,STARLINK-6231,PAYLOAD,2024-08-10 14:52:11,14.98332646,0.0002534,70.0023,336.9408,265.2402,94.8468,1.7691e-05,1.18e-06,0.0,0 STARLINK-6231,1 56779U 23078N   24223.61957306  .00000118  00000-0  17691-4 0  9992,2 56779  70.0023 336.9408 0002534 265.2402  94.8468 14.98332646 66878,6950.185,96.107,573.811,570.289,0.0
